CCSDS_OMM_VERS = 2.0
CREATION_DATE  = 
ORIGINATOR     = 

OBJECT_NAME    = STARLINK-35440
OBJECT_ID      = 2025-253AC
CENTER_NAME    = EARTH
REF_FRAME      = TEME
TIME_SYSTEM    = UTC
MEAN_ELEMENT_THEORY = SGP/SGP4

EPOCH          = 2025-11-28T04:00:03.998880
MEAN_MOTION    = 15.50569952
ECCENTRICITY   = .0001553
INCLINATION    = 42.9996
RA_OF_ASC_NODE = 69.8459
ARG_OF_PERICENTER = 276.5393
MEAN_ANOMALY   = 16.1062

EPHEMERIS_TYPE = 0
CLASSIFICATION_TYPE = U
NORAD_CAT_ID   = 66345
ELEMENT_SET_NO = 999
REV_AT_EPOCH   = 458
BSTAR          = -.5926E-3
MEAN_MOTION_DOT = -.3494E-3
MEAN_MOTION_DDOT = 0

CCSDS_OMM_VERS = 2.0
CREATION_DATE  = 
ORIGINATOR     = 

OBJECT_NAME    = STARLINK-35482
OBJECT_ID      = 2025-253AD
CENTER_NAME    = EARTH
REF_FRAME      = TEME
TIME_SYSTEM    = UTC
MEAN_ELEMENT_THEORY = SGP/SGP4

EPOCH          = 2025-11-28T04:00:03.998880
MEAN_MOTION    = 15.50581600
ECCENTRICITY   = .0001153
INCLINATION    = 42.9996
RA_OF_ASC_NODE = 69.8428
ARG_OF_PERICENTER = 268.1324
MEAN_ANOMALY   = 26.4321

EPHEMERIS_TYPE = 0
CLASSIFICATION_TYPE = U
NORAD_CAT_ID   = 66346
ELEMENT_SET_NO = 999
REV_AT_EPOCH   = 468
BSTAR          = -.97284E-3
MEAN_MOTION_DOT = -.57003E-3
MEAN_MOTION_DDOT = 0

CCSDS_OMM_VERS = 2.0
CREATION_DATE  = 
ORIGINATOR     = 

OBJECT_NAME    = STARLINK-35438
OBJECT_ID      = 2025-253AE
CENTER_NAME    = EARTH
REF_FRAME      = TEME
TIME_SYSTEM    = UTC
MEAN_ELEMENT_THEORY = SGP/SGP4

EPOCH          = 2025-11-28T04:00:03.998880
MEAN_MOTION    = 15.50567198
ECCENTRICITY   = .0001627
INCLINATION    = 42.9996
RA_OF_ASC_NODE = 69.8325
ARG_OF_PERICENTER = 270.3195
MEAN_ANOMALY   = 28.0850

EPHEMERIS_TYPE = 0
CLASSIFICATION_TYPE = U
NORAD_CAT_ID   = 66347
ELEMENT_SET_NO = 999
REV_AT_EPOCH   = 458
BSTAR          = -.55346E-3
MEAN_MOTION_DOT = -.32662E-3
MEAN_MOTION_DDOT = 0

CCSDS_OMM_VERS = 2.0
CREATION_DATE  = 
ORIGINATOR     = 

OBJECT_NAME    = STARLINK-35849
OBJECT_ID      = 2025-254A
CENTER_NAME    = EARTH
REF_FRAME      = TEME
TIME_SYSTEM    = UTC
MEAN_ELEMENT_THEORY = SGP/SGP4

EPOCH          = 2025-11-28T03:35:33.770688
MEAN_MOTION    = 15.74247956
ECCENTRICITY   = .000134
INCLINATION    = 53.1587
RA_OF_ASC_NODE = 347.3826
ARG_OF_PERICENTER = 107.9532
MEAN_ANOMALY   = 252.1634

EPHEMERIS_TYPE = 0
CLASSIFICATION_TYPE = U
NORAD_CAT_ID   = 66348
ELEMENT_SET_NO = 999
REV_AT_EPOCH   = 454
BSTAR          = .13158E-2
MEAN_MOTION_DOT = .197148E-2
MEAN_MOTION_DDOT = 0

CCSDS_OMM_VERS = 2.0
CREATION_DATE  = 
ORIGINATOR     = 

OBJECT_NAME    = STARLINK-35848
OBJECT_ID      = 2025-254B
CENTER_NAME    = EARTH
REF_FRAME      = TEME
TIME_SYSTEM    = UTC
MEAN_ELEMENT_THEORY = SGP/SGP4

EPOCH          = 2025-11-28T03:35:02.798880
MEAN_MOTION    = 15.74220351
ECCENTRICITY   = .0001577
INCLINATION    = 53.1587
RA_OF_ASC_NODE = 347.3802
ARG_OF_PERICENTER = 93.5494
MEAN_ANOMALY   = 266.5706

EPHEMERIS_TYPE = 0
CLASSIFICATION_TYPE = U
NORAD_CAT_ID   = 66349
ELEMENT_SET_NO = 999
REV_AT_EPOCH   = 338
BSTAR          = .16626E-3
MEAN_MOTION_DOT = .23822E-3
MEAN_MOTION_DDOT = 0

CCSDS_OMM_VERS = 2.0
CREATION_DATE  = 
ORIGINATOR     = 

OBJECT_NAME    = STARLINK-35829
OBJECT_ID      = 2025-254C
CENTER_NAME    = EARTH
REF_FRAME      = TEME
TIME_SYSTEM    = UTC
MEAN_ELEMENT_THEORY = SGP/SGP4

EPOCH          = 2025-11-28T03:34:34.902912
MEAN_MOTION    = 15.74202634
ECCENTRICITY   = .0000894
INCLINATION    = 53.1588
RA_OF_ASC_NODE = 347.3773
ARG_OF_PERICENTER = 80.8050
MEAN_ANOMALY   = 279.3071

EPHEMERIS_TYPE = 0
CLASSIFICATION_TYPE = U
NORAD_CAT_ID   = 66350
ELEMENT_SET_NO = 999
REV_AT_EPOCH   = 338
BSTAR          = .11765E-2
MEAN_MOTION_DOT = .175413E-2
MEAN_MOTION_DDOT = 0

CCSDS_OMM_VERS = 2.0
CREATION_DATE  = 
ORIGINATOR     = 

OBJECT_NAME    = STARLINK-35828
OBJECT_ID      = 2025-254D
CENTER_NAME    = EARTH
REF_FRAME      = TEME
TIME_SYSTEM    = UTC
MEAN_ELEMENT_THEORY = SGP/SGP4

EPOCH          = 2025-11-28T03:34:08.709888
MEAN_MOTION    = 15.74314106
ECCENTRICITY   = .0002255
INCLINATION    = 53.1587
RA_OF_ASC_NODE = 347.3747
ARG_OF_PERICENTER = 89.8304
MEAN_ANOMALY   = 270.2974

EPHEMERIS_TYPE = 0
CLASSIFICATION_TYPE = U
NORAD_CAT_ID   = 66351
ELEMENT_SET_NO = 999
REV_AT_EPOCH   = 338
BSTAR          = .2654E-2
MEAN_MOTION_DOT = .409757E-2
MEAN_MOTION_DDOT = 0

CCSDS_OMM_VERS = 2.0
CREATION_DATE  = 
ORIGINATOR     = 

OBJECT_NAME    = STARLINK-35850
OBJECT_ID      = 2025-254E
CENTER_NAME    = EARTH
REF_FRAME      = TEME
TIME_SYSTEM    = UTC
MEAN_ELEMENT_THEORY = SGP/SGP4

EPOCH          = 2025-11-28T03:33:38.132064
MEAN_MOTION    = 15.74261191
ECCENTRICITY   = .0001558
INCLINATION    = 53.1590
RA_OF_ASC_NODE = 347.3723
ARG_OF_PERICENTER = 111.5980
MEAN_ANOMALY   = 248.5206

EPHEMERIS_TYPE = 0
CLASSIFICATION_TYPE = U
NORAD_CAT_ID   = 66352
ELEMENT_SET_NO = 999
REV_AT_EPOCH   = 338
BSTAR          = .12613E-2
MEAN_MOTION_DOT = .188879E-2
MEAN_MOTION_DDOT = 0

CCSDS_OMM_VERS = 2.0
CREATION_DATE  = 
ORIGINATOR     = 

OBJECT_NAME    = STARLINK-35869
OBJECT_ID      = 2025-254F
CENTER_NAME    = EARTH
REF_FRAME      = TEME
TIME_SYSTEM    = UTC
MEAN_ELEMENT_THEORY = SGP/SGP4

EPOCH          = 2025-11-28T03:33:08.019072
MEAN_MOTION    = 15.74207031
ECCENTRICITY   = .0001017
INCLINATION    = 53.1585
RA_OF_ASC_NODE = 347.3698
ARG_OF_PERICENTER = 105.9997
MEAN_ANOMALY   = 254.1134

EPHEMERIS_TYPE = 0
CLASSIFICATION_TYPE = U
NORAD_CAT_ID   = 66353
ELEMENT_SET_NO = 999
REV_AT_EPOCH   = 338
BSTAR          = .82253E-3
MEAN_MOTION_DOT = .12168E-2
MEAN_MOTION_DDOT = 0

CCSDS_OMM_VERS = 2.0
CREATION_DATE  = 
ORIGINATOR     = 

OBJECT_NAME    = STARLINK-35895
OBJECT_ID      = 2025-254G
CENTER_NAME    = EARTH
REF_FRAME      = TEME
TIME_SYSTEM    = UTC
MEAN_ELEMENT_THEORY = SGP/SGP4

EPOCH          = 2025-11-28T02:01:12.912672
MEAN_MOTION    = 15.74398239
ECCENTRICITY   = .0001629
INCLINATION    = 53.1585
RA_OF_ASC_NODE = 347.6816
ARG_OF_PERICENTER = 109.4514
MEAN_ANOMALY   = 250.6682

EPHEMERIS_TYPE = 0
CLASSIFICATION_TYPE = U
NORAD_CAT_ID   = 66354
ELEMENT_SET_NO = 999
REV_AT_EPOCH   = 337
BSTAR          = .30384E-2
MEAN_MOTION_DOT = .474609E-2
MEAN_MOTION_DDOT = 0

CCSDS_OMM_VERS = 2.0
CREATION_DATE  = 
ORIGINATOR     = 

OBJECT_NAME    = STARLINK-35861
OBJECT_ID      = 2025-254H
CENTER_NAME    = EARTH
REF_FRAME      = TEME
TIME_SYSTEM    = UTC
MEAN_ELEMENT_THEORY = SGP/SGP4

EPOCH          = 2025-11-28T03:32:09.059712
MEAN_MOTION    = 15.74241044
ECCENTRICITY   = .0000842
INCLINATION    = 53.1588
RA_OF_ASC_NODE = 347.3650
ARG_OF_PERICENTER = 104.4711
MEAN_ANOMALY   = 255.6402

EPHEMERIS_TYPE = 0
CLASSIFICATION_TYPE = U
NORAD_CAT_ID   = 66355
ELEMENT_SET_NO = 999
REV_AT_EPOCH   = 338
BSTAR          = .13837E-2
MEAN_MOTION_DOT = .20755E-2
MEAN_MOTION_DDOT = 0

CCSDS_OMM_VERS = 2.0
CREATION_DATE  = 
ORIGINATOR     = 

OBJECT_NAME    = STARLINK-35851
OBJECT_ID      = 2025-254J
CENTER_NAME    = EARTH
REF_FRAME      = TEME
TIME_SYSTEM    = UTC
MEAN_ELEMENT_THEORY = SGP/SGP4

EPOCH          = 2025-11-28T03:31:40.056096
MEAN_MOTION    = 15.74250425
ECCENTRICITY   = .0001103
INCLINATION    = 53.1586
RA_OF_ASC_NODE = 347.3618
ARG_OF_PERICENTER = 102.6553
MEAN_ANOMALY   = 257.4591

EPHEMERIS_TYPE = 0
CLASSIFICATION_TYPE = U
NORAD_CAT_ID   = 66356
ELEMENT_SET_NO = 999
REV_AT_EPOCH   = 338
BSTAR          = .12948E-2
MEAN_MOTION_DOT = .193937E-2
MEAN_MOTION_DDOT = 0

CCSDS_OMM_VERS = 2.0
CREATION_DATE  = 
ORIGINATOR     = 

OBJECT_NAME    = STARLINK-35817
OBJECT_ID      = 2025-254K
CENTER_NAME    = EARTH
REF_FRAME      = TEME
TIME_SYSTEM    = UTC
MEAN_ELEMENT_THEORY = SGP/SGP4

EPOCH          = 2025-11-28T03:31:10.921152
MEAN_MOTION    = 15.74244883
ECCENTRICITY   = .0001175
INCLINATION    = 53.1586
RA_OF_ASC_NODE = 347.3602
ARG_OF_PERICENTER = 98.1435
MEAN_ANOMALY   = 261.9718

EPHEMERIS_TYPE = 0
CLASSIFICATION_TYPE = U
NORAD_CAT_ID   = 66357
ELEMENT_SET_NO = 999
REV_AT_EPOCH   = 338
BSTAR          = .13151E-2
MEAN_MOTION_DOT = .197009E-2
MEAN_MOTION_DDOT = 0

CCSDS_OMM_VERS = 2.0
CREATION_DATE  = 
ORIGINATOR     = 

OBJECT_NAME    = STARLINK-35807
OBJECT_ID      = 2025-254L
CENTER_NAME    = EARTH
REF_FRAME      = TEME
TIME_SYSTEM    = UTC
MEAN_ELEMENT_THEORY = SGP/SGP4

EPOCH          = 2025-11-28T03:30:41.709312
MEAN_MOTION    = 15.74251352
ECCENTRICITY   = .0001137
INCLINATION    = 53.1584
RA_OF_ASC_NODE = 347.3576
ARG_OF_PERICENTER = 96.9888
MEAN_ANOMALY   = 263.1261

EPHEMERIS_TYPE = 0
CLASSIFICATION_TYPE = U
NORAD_CAT_ID   = 66358
ELEMENT_SET_NO = 999
REV_AT_EPOCH   = 338
BSTAR          = .13796E-2
MEAN_MOTION_DOT = .20702E-2
MEAN_MOTION_DDOT = 0

CCSDS_OMM_VERS = 2.0
CREATION_DATE  = 
ORIGINATOR     = 

OBJECT_NAME    = STARLINK-35805
OBJECT_ID      = 2025-254M
CENTER_NAME    = EARTH
REF_FRAME      = TEME
TIME_SYSTEM    = UTC
MEAN_ELEMENT_THEORY = SGP/SGP4

EPOCH          = 2025-11-28T03:30:12.476736
MEAN_MOTION    = 15.74256300
ECCENTRICITY   = .0001202
INCLINATION    = 53.1583
RA_OF_ASC_NODE = 347.3554
ARG_OF_PERICENTER = 75.5397
MEAN_ANOMALY   = 284.5756

EPHEMERIS_TYPE = 0
CLASSIFICATION_TYPE = U
NORAD_CAT_ID   = 66359
ELEMENT_SET_NO = 999
REV_AT_EPOCH   = 452
BSTAR          = .14144E-2
MEAN_MOTION_DOT = .212439E-2
MEAN_MOTION_DDOT = 0

